satname,norad_id,inclination_deg,eccentricity,mean_motion_rev_per_day,perigee_km,apogee_km,l1,l2
STARLINK-1496,45780,53.0553,0.0001346,15.36503674,455.53787618534807,457.3777491089131,1 45780U 20038BC  26002.91668980  .00028524  00000+0  79687-3 0  9994,2 45780  53.0553 129.7210 0001346  80.4913 206.6720 15.36503674  5848
STARLINK-1497,45781,53.032,0.0005303,15.77283586,334.5791713907329,341.7024556397473,1 45781U 20038BD  26002.91668980  .00307166  00000+0  17688-2 0  9999,2 45781  53.0320  50.9318 0005303  24.2394 205.6784 15.77283586  6012
STARLINK-1510,45784,53.0144,0.0005957,16.1691579,224.0038739773181,231.8743530589636,1 45784U 20038BG  26002.88000169  .01513734  19301-2  99741-3 0  9996,2 45784  53.0144  16.6945 0005957  43.2777 316.8726 16.16915790308452
STARLINK-1513,45786,53.0555,0.0001609,15.06400668,546.095222361686,548.3237988688015,1 45786U 20038BJ  26002.36817436  .00003320  00000+0  24167-3 0  9991,2 45786  53.0555 134.3483 0001609  93.8778 266.2395 15.06400668306760
STARLINK-1522,46027,53.0552,0.0001593,15.06392351,546.1317893610376,548.3382128805952,1 46027U 20055A   26002.54786979  .00005261  00000+0  37192-3 0  9994,2 46027  53.0552  63.5399 0001593  38.8655 321.2448 15.06392351298917
STARLINK-1523,46028,53.0568,0.0001634,15.06404092,546.067416670915,548.3306164811311,1 46028U 20055B   26002.42991141  .00004857  00000+0  34472-3 0  9999,2 46028  53.0568  64.0730 0001634  87.1501 272.9675 15.06404092298913
STARLINK-1526,46029,53.0553,0.0001244,15.06391509,546.3760651546181,548.099098350558,1 46029U 20055C   26002.42253784 -.00001406  00000+0 -75506-4 0  9997,2 46029  53.0553  64.1016 0001244  92.1259 267.9872 15.06391509298909
STARLINK-1555,46032,53.0561,0.0001161,15.06399556,546.4088856090993,548.0169518602297,1 46032U 20055F   26002.54049826  .00007441  00000+0  51794-3 0  9999,2 46032  53.0561  63.5740 0001161  89.3703 270.7419 15.06399556298920
STARLINK-1556,46033,53.0559,0.0001484,15.0639257,546.2066048063998,548.2620550171187,1 46033U 20055G   26002.45572730  .00003200  00000+0  23368-3 0  9990,2 46033  53.0559  63.9561 0001484  95.9437 264.1721 15.06392570298885
STARLINK-1557,46034,53.0557,0.000122,15.06394355,546.3839644694663,548.0737537390878,1 46034U 20055H   26002.45940933  .00001284  00000+0  10507-3 0  9996,2 46034  53.0557  63.9360 0001220  81.9684 278.1443 15.06394355298887
STARLINK-1558,46035,53.0545,0.0001256,15.06400898,546.3389822657846,548.0786291321756,1 46035U 20055J   26002.66581326  .00008095  00000+0  56172-3 0  9992,2 46035  53.0545  63.0133 0001256  79.7778 280.3352 15.06400898298943
STARLINK-1560,46036,53.0553,0.0001378,15.06390781,546.2854960647664,548.1941299144273,1 46036U 20055K   26002.58472674  .00003182  00000+0  23247-3 0  9998,2 46036  53.0553  63.3759 0001378  87.0036 273.1111 15.06390781298935
STARLINK-1567,46038,53.055,0.0001324,15.06381734,546.3506176019337,548.1844647244334,1 46038U 20055M   26002.59578495  .00016983  00000+0  11569-2 0  9995,2 46038  53.0550  63.3268 0001324 101.1890 258.9248 15.06381734298925
STARLINK-1569,46039,53.0548,0.0001356,15.06382581,546.3258606751615,548.2040296826935,1 46039U 20055N   26002.60316781  .00000945  00000+0  82345-4 0  9999,2 46039  53.0548  63.2899 0001356 108.6702 251.4435 15.06382581298928
STARLINK-1582,46043,53.0555,0.0001539,15.06394681,546.1620463032214,548.293673607116,1 46043U 20055S   26002.54418111  .00005761  00000+0  40538-3 0  9995,2 46043  53.0555  63.5565 0001539  59.5197 300.5944 15.06394681298913
STARLINK-1591,46045,53.0553,0.0001373,15.06385687,546.3045691891357,548.2062819491975,1 46045U 20055U   26002.56998318  .00002658  00000+0  19734-3 0  9997,2 46045  53.0553  63.4416 0001373  97.1862 262.9283 15.06385687298902
STARLINK-1524,46047,53.0558,0.0001334,15.06383897,546.337063672242,548.1847598350969,1 46047U 20055W   26002.52298920  .00001266  00000+0  10391-3 0  9991,2 46047  53.0558  53.6527 0001334  75.2127 284.9010 15.06383897299051
STARLINK-1527,46048,53.0554,0.0001571,15.06398411,546.1284549751626,548.3044010222393,1 46048U 20055X   26002.45294738  .00006794  00000+0  47455-3 0  9999,2 46048  53.0554  53.9670 0001571 149.2391 210.8690 15.06398411299025
STARLINK-1540,46051,53.0558,0.0001432,15.06386269,546.2619258554114,548.2453577352217,1 46051U 20055AA  26002.81786594  .00010704  00000+0  73668-3 0  9990,2 46051  53.0558  52.3301 0001432 100.2834 259.8317 15.06386269299119
STARLINK-1541,46052,53.0558,0.0001246,15.06397044,546.3577181081882,548.0835172265106,1 46052U 20055AB  26002.53774017  .00000237  00000+0  34776-4 0  9995,2 46052  53.0558  53.5868 0001246  99.1985 260.9145 15.06397044299033
STARLINK-1543,46053,53.0564,0.0001303,15.06394888,546.3248505677357,548.1296004849073,1 46053U 20055AC  26002.54142395 -.00001707  00000+0 -95771-4 0  9992,2 46053  53.0564  53.5718 0001303  80.6859 279.4278 15.06394888299062
STARLINK-1548,46054,53.0555,0.000171,15.06407784,546.0034706782017,548.3719317260129,1 46054U 20055AD  26002.41610228  .00010559  00000+0  72656-3 0  9993,2 46054  53.0555  54.1324 0001710  97.5621 262.5562 15.06407784299046
STARLINK-1554,46055,53.0548,0.0001547,15.06396815,546.1499665897227,548.2926724537829,1 46055U 20055AE  26002.40134895  .00009572  00000+0  66066-3 0  9995,2 46055  53.0548  54.1983 0001547  85.3130 274.8036 15.06396815299042
STARLINK-1564,46058,53.0549,0.0001498,15.06384868,546.2205115657252,548.2953598884687,1 46058U 20055AH  26002.54517848  .00001467  00000+0  11737-3 0  9996,2 46058  53.0549  54.0116 0001498  73.9059 286.2095 15.06384868299059
STARLINK-1570,46059,53.0544,0.0001265,15.06387115,546.374987300801,548.1271104771695,1 46059U 20055AJ  26002.44189784 -.00000750  00000+0 -31490-4 0  9995,2 46059  53.0544  54.0182 0001265  84.4073 275.7060 15.06387115299001
STARLINK-1572,46060,53.0567,0.0001597,15.06394126,546.1235799209808,548.3355420005519,1 46060U 20055AK  26002.83629263  .00006134  00000+0  43039-3 0  9992,2 46060  53.0567  52.2463 0001597  98.5618 261.5552 15.06394126299075
STARLINK-1573,46061,53.0556,0.0001199,15.06401876,546.3754596717263,548.0361568771505,1 46061U 20055AL  26002.83261061  .00002984  00000+0  21915-3 0  9999,2 46061  53.0556  52.2997 0001199 102.5561 257.5562 15.06401876299108
STARLINK-1577,46063,53.0551,0.0001885,15.06411994,545.8693770256514,548.4802195736102,1 46063U 20055AN  26002.39397767  .00003684  00000+0  26601-3 0  9990,2 46063  53.0551  54.2309 0001885  79.1334 280.9867 15.06411994299035
